TOMORROW-S2             
1 60485U 24149T   26068.75188364  .00008133  00000+0  27683-3 0  9990
2 60485  97.3857 150.0385 0001648 234.3331 125.7757 15.30674935 86869
STARLINK-35847          
1 66621U 25271E   26068.49236143  .00022217  00000+0  76012-3 0  9994
2 66621  53.1575 141.0478 0001007  81.2610 278.8505 15.30195077 17539
